[
    {
        "Altitude(m)": 714835.0548380477,
        "Argument of Periapsis(deg)": 0.005695060593313534,
        "Eccentricity": 0.0,
        "Inclination(deg)": 45.0,
        "Latitude(deg)": -37.79225921559334,
        "Longitude(deg)": -105.84232312077798,
        "Mean Anomaly(deg)": 300.31210832374046,
        "RAAN(deg)": 44.994624029270895,
        "Satellite Name": "Constellation 1 216",
        "Satellite Number": 216,
        "Semi-Major Axis(m)": 7083131.272910544,
        "Time(s)": 95
    },
    {
        "Altitude(m)": 714823.7837787869,
        "Argument of Periapsis(deg)": 0.00575500859955894,
        "Eccentricity": 0.0,
        "Inclination(deg)": 45.0,
        "Latitude(deg)": -37.764897994504025,
        "Longitude(deg)": -105.77816155981746,
        "Mean Anomaly(deg)": 300.37280946399034,
        "RAAN(deg)": 44.99456744010533,
        "Satellite Name": "Constellation 1 216",
        "Satellite Number": 216,
        "Semi-Major Axis(m)": 7083131.272910544,
        "Time(s)": 96
    },
    {
        "Altitude(m)": 714812.4975025919,
        "Argument of Periapsis(deg)": 0.005814956605804345,
        "Eccentricity": 0.0,
        "Inclination(deg)": 45.0,
        "Latitude(deg)": -37.73749709354319,
        "Longitude(deg)": -105.71405000591999,
        "Mean Anomaly(deg)": 300.4335106042402,
        "RAAN(deg)": 44.994510850939754,
        "Satellite Name": "Constellation 1 216",
        "Satellite Number": 216,
        "Semi-Major Axis(m)": 7083131.272910544,
        "Time(s)": 97
    },
    {
        "Altitude(m)": 714801.1960503435,
        "Argument of Periapsis(deg)": 0.00587490461204975,
        "Eccentricity": 0.0,
        "Inclination(deg)": 45.0,
        "Latitude(deg)": -37.710056579917634,
        "Longitude(deg)": -105.64998861301892,
        "Mean Anomaly(deg)": 300.4942117444901,
        "RAAN(deg)": 44.99445426177419,
        "Satellite Name": "Constellation 1 216",
        "Satellite Number": 216,
        "Semi-Major Axis(m)": 7083131.272910544,
        "Time(s)": 98
    },
    {
        "Altitude(m)": 714789.8794629805,
        "Argument of Periapsis(deg)": 0.005934852618295156,
        "Eccentricity": 0.0,
        "Inclination(deg)": 45.0,
        "Latitude(deg)": -37.682576520797255,
        "Longitude(deg)": -105.58597736662553,
        "Mean Anomaly(deg)": 300.55491288474,
        "RAAN(deg)": 44.99439767260862,
        "Satellite Name": "Constellation 1 216",
        "Satellite Number": 216,
        "Semi-Major Axis(m)": 7083131.272910544,
        "Time(s)": 99
    },
    {
        "Altitude(m)": 714778.5477814882,
        "Argument of Periapsis(deg)": 0.005994800624540561,
        "Eccentricity": 0.0,
        "Inclination(deg)": 45.0,
        "Latitude(deg)": -37.65505698331463,
        "Longitude(deg)": -105.52201625192825,
        "Mean Anomaly(deg)": 300.61561402498995,
        "RAAN(deg)": 44.99434108344305,
        "Satellite Name": "Constellation 1 216",
        "Satellite Number": 216,
        "Semi-Major Axis(m)": 7083131.272910544,
        "Time(s)": 100
    },
    {
        "Altitude(m)": 714767.2010469084,
        "Argument of Periapsis(deg)": 0.006054748630785968,
        "Eccentricity": 0.0,
        "Inclination(deg)": 45.0,
        "Latitude(deg)": -37.62749803456452,
        "Longitude(deg)": -105.45810525379373,
        "Mean Anomaly(deg)": 300.6763151652398,
        "RAAN(deg)": 44.99428449427748,
        "Satellite Name": "Constellation 1 216",
        "Satellite Number": 216,
        "Semi-Major Axis(m)": 7083131.272910544,
        "Time(s)": 101
    },
    {
        "Altitude(m)": 714755.8393003257,
        "Argument of Periapsis(deg)": 0.006114696637031373,
        "Eccentricity": 0.0,
        "Inclination(deg)": 45.0,
        "Latitude(deg)": -37.5998997416035,
        "Longitude(deg)": -105.39424435676828,
        "Mean Anomaly(deg)": 300.7370163054897,
        "RAAN(deg)": 44.99422790511191,
        "Satellite Name": "Constellation 1 216",
        "Satellite Number": 216,
        "Semi-Major Axis(m)": 7083131.272910544,
        "Time(s)": 102
    },
    {
        "Altitude(m)": 714744.4625828805,
        "Argument of Periapsis(deg)": 0.006174644643276778,
        "Eccentricity": 0.0,
        "Inclination(deg)": 45.0,
        "Latitude(deg)": -37.572262171449715,
        "Longitude(deg)": -105.33043354507952,
        "Mean Anomaly(deg)": 300.79771744573964,
        "RAAN(deg)": 44.99417131594634,
        "Satellite Name": "Constellation 1 216",
        "Satellite Number": 216,
        "Semi-Major Axis(m)": 7083131.272910544,
        "Time(s)": 103
    },
    {
        "Altitude(m)": 714733.0709357628,
        "Argument of Periapsis(deg)": 0.006234592649522184,
        "Eccentricity": 0.0,
        "Inclination(deg)": 45.0,
        "Latitude(deg)": -37.54458539108216,
        "Longitude(deg)": -105.26667297073466,
        "Mean Anomaly(deg)": 300.85841858598957,
        "RAAN(deg)": 44.99411472678077,
        "Satellite Name": "Constellation 1 216",
        "Satellite Number": 216,
        "Semi-Major Axis(m)": 7083131.272910544,
        "Time(s)": 104
    },
    {
        "Altitude(m)": 714721.6644002165,
        "Argument of Periapsis(deg)": 0.00629454065576759,
        "Eccentricity": 0.0,
        "Inclination(deg)": 45.0,
        "Latitude(deg)": -37.51686946744107,
        "Longitude(deg)": -105.20296228113364,
        "Mean Anomaly(deg)": 300.91911972623944,
        "RAAN(deg)": 44.9940581376152,
        "Satellite Name": "Constellation 1 216",
        "Satellite Number": 216,
        "Semi-Major Axis(m)": 7083131.272910544,
        "Time(s)": 105
    },
    {
        "Altitude(m)": 714710.24301753,
        "Argument of Periapsis(deg)": 0.006354488662012995,
        "Eccentricity": 0.0,
        "Inclination(deg)": 45.0,
        "Latitude(deg)": -37.48911446742653,
        "Longitude(deg)": -105.139301627653,
        "Mean Anomaly(deg)": 300.9798208664893,
        "RAAN(deg)": 44.99400154844963,
        "Satellite Name": "Constellation 1 216",
        "Satellite Number": 216,
        "Semi-Major Axis(m)": 7083131.272910544,
        "Time(s)": 106
    },
    {
        "Altitude(m)": 714698.8068290439,
        "Argument of Periapsis(deg)": 0.006414436668258401,
        "Eccentricity": 0.0,
        "Inclination(deg)": 45.0,
        "Latitude(deg)": -37.4613204578988,
        "Longitude(deg)": -105.07569099325916,
        "Mean Anomaly(deg)": 301.0405220067392,
        "RAAN(deg)": 44.99394495928406,
        "Satellite Name": "Constellation 1 216",
        "Satellite Number": 216,
        "Semi-Major Axis(m)": 7083131.272910544,
        "Time(s)": 107
    },
    {
        "Altitude(m)": 714687.355876148,
        "Argument of Periapsis(deg)": 0.0064743846745038075,
        "Eccentricity": 0.0,
        "Inclination(deg)": 45.0,
        "Latitude(deg)": -37.43348750567769,
        "Longitude(deg)": -105.01213036060662,
        "Mean Anomaly(deg)": 301.1012231469891,
        "RAAN(deg)": 44.9938883701185,
        "Satellite Name": "Constellation 1 216",
        "Satellite Number": 216,
        "Semi-Major Axis(m)": 7083131.272910544,
        "Time(s)": 108
    },
    {
        "Altitude(m)": 714675.890200287,
        "Argument of Periapsis(deg)": 0.0065343326807492125,
        "Eccentricity": 0.0,
        "Inclination(deg)": 45.0,
        "Latitude(deg)": -37.405615677542414,
        "Longitude(deg)": -104.94861971203983,
        "Mean Anomaly(deg)": 301.16192428723906,
        "RAAN(deg)": 44.993831780952924,
        "Satellite Name": "Constellation 1 216",
        "Satellite Number": 216,
        "Semi-Major Axis(m)": 7083131.272910544,
        "Time(s)": 109
    },
    {
        "Altitude(m)": 714664.409842946,
        "Argument of Periapsis(deg)": 0.0065942806869946176,
        "Eccentricity": 0.0,
        "Inclination(deg)": 45.0,
        "Latitude(deg)": -37.377705040231056,
        "Longitude(deg)": -104.88515902959412,
        "Mean Anomaly(deg)": 301.2226254274889,
        "RAAN(deg)": 44.99377519178736,
        "Satellite Name": "Constellation 1 216",
        "Satellite Number": 216,
        "Semi-Major Axis(m)": 7083131.272910544,
        "Time(s)": 110
    },
    {
        "Altitude(m)": 714652.9148456653,
        "Argument of Periapsis(deg)": 0.006654228693240024,
        "Eccentricity": 0.0,
        "Inclination(deg)": 45.0,
        "Latitude(deg)": -37.349755660439975,
        "Longitude(deg)": -104.82174846309441,
        "Mean Anomaly(deg)": 301.2833265677388,
        "RAAN(deg)": 44.99371860262178,
        "Satellite Name": "Constellation 1 216",
        "Satellite Number": 216,
        "Semi-Major Axis(m)": 7083131.272910544,
        "Time(s)": 111
    },
    {
        "Altitude(m)": 714641.4052500355,
        "Argument of Periapsis(deg)": 0.006714176699485429,
        "Eccentricity": 0.0,
        "Inclination(deg)": 45.0,
        "Latitude(deg)": -37.321767604824146,
        "Longitude(deg)": -104.75838765776784,
        "Mean Anomaly(deg)": 301.34402770798874,
        "RAAN(deg)": 44.993662013456216,
        "Satellite Name": "Constellation 1 216",
        "Satellite Number": 216,
        "Semi-Major Axis(m)": 7083131.272910544,
        "Time(s)": 112
    },
    {
        "Altitude(m)": 714629.8810976938,
        "Argument of Periapsis(deg)": 0.006774124705730835,
        "Eccentricity": 0.0,
        "Inclination(deg)": 45.0,
        "Latitude(deg)": -37.293740939996155,
        "Longitude(deg)": -104.69507676282882,
        "Mean Anomaly(deg)": 301.4047288482386,
        "RAAN(deg)": 44.99360542429064,
        "Satellite Name": "Constellation 1 216",
        "Satellite Number": 216,
        "Semi-Major Axis(m)": 7083131.272910544,
        "Time(s)": 113
    }
]